start=new Date('2022-03-15T00:00:00.000Z').valueOf();
sats=[{"EPOCH":"2022-03-14T19:49:42.498912","REV_AT_EPOCH":"7516","PERIOD":"95.592","SITE":"AFETR","MEAN_MOTION_DDOT":"0.0000000000000","OBJECT_ID":"2020-057AD","RA_OF_ASC_NODE":"352.2503","TIME_SYSTEM":"UTC","RCS_SIZE":"LARGE","MEAN_MOTION_DOT":"0.00018746","MEAN_MOTION":"15.06397733","SEMIMAJOR_AXIS":"6925.356","TLE_LINE1":"1 46144U 20057AD  22073.82618633  .00018746  00000-0  12741-2 0  9997","DECAY_DATE":null,"ARG_OF_PERICENTER":"67.1788","CLASSIFICATION_TYPE":"U","LAUNCH_DATE":"2020-08-18","INCLINATION":"53.0552","ELEMENT_SET_NO":"999","PERIAPSIS":"546.077","MEAN_ELEMENT_THEORY":"SGP4","OBJECT_TYPE":"PAYLOAD","TLE_LINE2":"2 46144  53.0552 352.2503 0001651  67.1788 292.9375 15.06397733 75161","GP_ID":"198767134","OBJECT_NAME":"STARLINK-1606","COUNTRY_CODE":"US","ECCENTRICITY":"0.00016510","REF_FRAME":"TEME","APOAPSIS":"548.364","NORAD_CAT_ID":"46144","BSTAR":"0.00127410000000","FILE":"3359665","CENTER_NAME":"EARTH","MEAN_ANOMALY":"292.9375","EPHEMERIS_TYPE":"0"},{"INCLINATION":"53.0553","LAUNCH_DATE":"2020-08-18","CLASSIFICATION_TYPE":"U","ARG_OF_PERICENTER":"52.1021","TLE_LINE1":"1 46146U 20057AF  22073.80591259  .00000769  00000-0  70549-4 0  9999","DECAY_DATE":null,"SEMIMAJOR_AXIS":"6925.366","MEAN_MOTION":"15.06394316","MEAN_MOTION_DOT":"0.00000769","RCS_SIZE":"LARGE","TIME_SYSTEM":"UTC","RA_OF_ASC_NODE":"12.3248","MEAN_MOTION_DDOT":"0.0000000000000","SITE":"AFETR","OBJECT_ID":"2020-057AF","PERIOD":"95.593","REV_AT_EPOCH":"8663","EPOCH":"2022-03-14T19:20:30.847776","EPHEMERIS_TYPE":"0","MEAN_ANOMALY":"308.0121","CENTER_NAME":"EARTH","FILE":"3359665","BSTAR":"0.00007054900000","NORAD_CAT_ID":"46146","APOAPSIS":"548.406","REF_FRAME":"TEME","ECCENTRICITY":"0.00016960","COUNTRY_CODE":"US","OBJECT_NAME":"STARLINK-1608","GP_ID":"198767385","TLE_LINE2":"2 46146  53.0553  12.3248 0001696  52.1021 308.0121 15.06394316 86633","OBJECT_TYPE":"PAYLOAD","PERIAPSIS":"546.056","MEAN_ELEMENT_THEORY":"SGP4","ELEMENT_SET_NO":"999"},{"REF_FRAME":"TEME","COUNTRY_CODE":"US","ECCENTRICITY":"0.00019280","APOAPSIS":"548.554","NORAD_CAT_ID":"46147","CENTER_NAME":"EARTH","MEAN_ANOMALY":"316.8509","BSTAR":"-0.00011958000000","FILE":"3359301","EPHEMERIS_TYPE":"0","PERIAPSIS":"545.884","MEAN_ELEMENT_THEORY":"SGP4","ELEMENT_SET_NO":"999","TLE_LINE2":"2 46147  53.0571  13.6019 0001928  43.2631 316.8509 15.06398179 87246","OBJECT_TYPE":"PAYLOAD","OBJECT_NAME":"STARLINK-1611","GP_ID":"198738170","RCS_SIZE":"LARGE","MEAN_MOTION_DOT":"-0.00002062","MEAN_MOTION":"15.06398179","TLE_LINE1":"1 46147U 20057AG  22073.52209428 -.00002062  00000-0 -11958-3 0  9991","DECAY_DATE":null,"ARG_OF_PERICENTER":"43.2631","SEMIMAJOR_AXIS":"6925.354","LAUNCH_DATE":"2020-08-18","CLASSIFICATION_TYPE":"U","INCLINATION":"53.0571","EPOCH":"2022-03-14T12:31:48.945792","REV_AT_EPOCH":"8724","PERIOD":"95.592","RA_OF_ASC_NODE":"13.6019","TIME_SYSTEM":"UTC","OBJECT_ID":"2020-057AG","SITE":"AFETR","MEAN_MOTION_DDOT":"0.0000000000000"},{"INCLINATION":"53.0571","CLASSIFICATION_TYPE":"U","LAUNCH_DATE":"2020-08-18","ARG_OF_PERICENTER":"62.4551","DECAY_DATE":null,"TLE_LINE1":"1 46148U 20057AH  22073.26222332  .00002398  00000-0  17973-3 0  9995","SEMIMAJOR_AXIS":"6925.302","MEAN_MOTION":"15.06415061","RCS_SIZE":"LARGE","MEAN_MOTION_DOT":"0.00002398","TIME_SYSTEM":"UTC","RA_OF_ASC_NODE":"354.7690","SITE":"AFETR","OBJECT_ID":"2020-057AH","MEAN_MOTION_DDOT":"0.0000000000000","PERIOD":"95.591","EPOCH":"2022-03-14T06:17:36.094848","REV_AT_EPOCH":"8682","EPHEMERIS_TYPE":"0","MEAN_ANOMALY":"297.6607","CENTER_NAME":"EARTH","FILE":"3359259","BSTAR":"0.00017973000000","NORAD_CAT_ID":"46148","APOAPSIS":"548.322","REF_FRAME":"TEME","COUNTRY_CODE":"US","ECCENTRICITY":"0.00016670","OBJECT_NAME":"STARLINK-1616","GP_ID":"198732916","TLE_LINE2":"2 46148  53.0571 354.7690 0001667  62.4551 297.6607 15.06415061 86823","OBJECT_TYPE":"PAYLOAD","PERIAPSIS":"546.013","MEAN_ELEMENT_THEORY":"SGP4","ELEMENT_SET_NO":"999"},{"MEAN_MOTION":"15.06388615","RCS_SIZE":"LARGE","MEAN_MOTION_DOT":"0.00000218","INCLINATION":"53.0565","CLASSIFICATION_TYPE":"U","LAUNCH_DATE":"2020-08-18","ARG_OF_PERICENTER":"74.4470","TLE_LINE1":"1 46149U 20057AJ  22073.74141529  .00000218  00000-0  33574-4 0  9992","DECAY_DATE":null,"SEMIMAJOR_AXIS":"6925.383","EPOCH":"2022-03-14T17:47:38.281056","REV_AT_EPOCH":"8817","TIME_SYSTEM":"UTC","RA_OF_ASC_NODE":"352.6298","OBJECT_ID":"2020-057AJ","SITE":"AFETR","MEAN_MOTION_DDOT":"0.0000000000000","PERIOD":"95.593","NORAD_CAT_ID":"46149","APOAPSIS":"548.290","REF_FRAME":"TEME","COUNTRY_CODE":"US","ECCENTRICITY":"0.00015040","EPHEMERIS_TYPE":"0","MEAN_ANOMALY":"285.6685","CENTER_NAME":"EARTH","FILE":"3359665","BSTAR":"0.00003357400000","PERIAPSIS":"546.207","MEAN_ELEMENT_THEORY":"SGP4","ELEMENT_SET_NO":"999","OBJECT_NAME":"STARLINK-1620","GP_ID":"198766635","TLE_LINE2":"2 46149  53.0565 352.6298 0001504  74.4470 285.6685 15.06388615 88178","OBJECT_TYPE":"PAYLOAD"},{"CLASSIFICATION_TYPE":"U","LAUNCH_DATE":"2020-08-18","INCLINATION":"53.0564","SEMIMAJOR_AXIS":"6925.347","DECAY_DATE":null,"TLE_LINE1":"1 46150U 20057AK  22073.33779937 -.00001814  00000-0 -10294-3 0  9997","ARG_OF_PERICENTER":"56.7725","MEAN_MOTION":"15.06400379","MEAN_MOTION_DOT":"-0.00001814","RCS_SIZE":"LARGE","SITE":"AFETR","MEAN_MOTION_DDOT":"0.0000000000000","OBJECT_ID":"2020-057AK","RA_OF_ASC_NODE":"14.4283","TIME_SYSTEM":"UTC","PERIOD":"95.592","EPOCH":"2022-03-14T08:06:25.865568","REV_AT_EPOCH":"8656","EPHEMERIS_TYPE":"0","BSTAR":"-0.00010294000000","FILE":"3359259","CENTER_NAME":"EARTH","MEAN_ANOMALY":"303.3403","APOAPSIS":"548.217","NORAD_CAT_ID":"46150","COUNTRY_CODE":"US","ECCENTRICITY":"0.00014500","REF_FRAME":"TEME","GP_ID":"198731915","OBJECT_NAME":"STARLINK-1629","OBJECT_TYPE":"PAYLOAD","TLE_LINE2":"2 46150  53.0564  14.4283 0001450  56.7725 303.3403 15.06400379 86561","ELEMENT_SET_NO":"999","MEAN_ELEMENT_THEORY":"SGP4","PERIAPSIS":"546.208"},{"MEAN_MOTION_DDOT":"0.0000000000000","SITE":"AFETR","OBJECT_ID":"2020-057AL","RA_OF_ASC_NODE":"353.6484","TIME_SYSTEM":"UTC","PERIOD":"95.592","REV_AT_EPOCH":"8686","EPOCH":"2022-03-14T12:18:32.933088","CLASSIFICATION_TYPE":"U","LAUNCH_DATE":"2020-08-18","INCLINATION":"53.0560","SEMIMAJOR_AXIS":"6925.354","DECAY_DATE":null,"TLE_LINE1":"1 46151U 20057AL  22073.51288117 -.00001093  00000-0 -54495-4 0  9994","ARG_OF_PERICENTER":"59.0791","MEAN_MOTION":"15.06398163","MEAN_MOTION_DOT":"-0.00001093","RCS_SIZE":"LARGE","GP_ID":"198732667","OBJECT_NAME":"STARLINK-1631","OBJECT_TYPE":"PAYLOAD","TLE_LINE2":"2 46151  53.0560 353.6484 0001577  59.0791 301.0353 15.06398163 86867","ELEMENT_SET_NO":"999","PERIAPSIS":"546.127","MEAN_ELEMENT_THEORY":"SGP4","EPHEMERIS_TYPE":"0","BSTAR":"-0.00005449500000","FILE":"3359259","CENTER_NAME":"EARTH","MEAN_ANOMALY":"301.0353","APOAPSIS":"548.311","NORAD_CAT_ID":"46151","COUNTRY_CODE":"US","ECCENTRICITY":"0.00015770","REF_FRAME":"TEME"},{"REV_AT_EPOCH":"8725","EPOCH":"2022-03-14T13:30:11.649312","PERIOD":"95.592","SITE":"AFETR","MEAN_MOTION_DDOT":"0.0000000000000","OBJECT_ID":"2020-057AM","TIME_SYSTEM":"UTC","RA_OF_ASC_NODE":"13.4292","MEAN_MOTION_DOT":"-0.00000010","RCS_SIZE":"LARGE","MEAN_MOTION":"15.06401376","SEMIMAJOR_AXIS":"6925.344","ARG_OF_PERICENTER":"61.8917","DECAY_DATE":null,"TLE_LINE1":"1 46152U 20057AM  22073.56263483 -.00000010  00000-0  18255-4 0  9990","INCLINATION":"53.0567","CLASSIFICATION_TYPE":"U","LAUNCH_DATE":"2020-08-18","ELEMENT_SET_NO":"999","MEAN_ELEMENT_THEORY":"SGP4","PERIAPSIS":"546.199","OBJECT_TYPE":"PAYLOAD","TLE_LINE2":"2 46152  53.0567  13.4292 0001459  61.8917 298.2220 15.06401376 87258","GP_ID":"198738258","OBJECT_NAME":"STARLINK-1634","COUNTRY_CODE":"US","ECCENTRICITY":"0.00014590","REF_FRAME":"TEME","NORAD_CAT_ID":"46152","APOAPSIS":"548.220","FILE":"3359308","BSTAR":"0.00001825500000","MEAN_ANOMALY":"298.2220","CENTER_NAME":"EARTH","EPHEMERIS_TYPE":"0"},{"EPOCH":"2022-03-14T11:09:32.200128","REV_AT_EPOCH":"8751","PERIOD":"95.593","OBJECT_ID":"2020-057AN","SITE":"AFETR","MEAN_MOTION_DDOT":"0.0000000000000","TIME_SYSTEM":"UTC","RA_OF_ASC_NODE":"353.8750","MEAN_MOTION_DOT":"-0.00002106","RCS_SIZE":"LARGE","MEAN_MOTION":"15.06394318","SEMIMAJOR_AXIS":"6925.366","ARG_OF_PERICENTER":"59.7533","TLE_LINE1":"1 46153U 20057AN  22073.46495602 -.00002106  00000-0 -12253-3 0  9990","DECAY_DATE":null,"INCLINATION":"53.0561","CLASSIFICATION_TYPE":"U","LAUNCH_DATE":"2020-08-18","ELEMENT_SET_NO":"999","PERIAPSIS":"546.106","MEAN_ELEMENT_THEORY":"SGP4","OBJECT_TYPE":"PAYLOAD","TLE_LINE2":"2 46153  53.0561 353.8750 0001625  59.7533 300.3617 15.06394318 87519","GP_ID":"198702785","OBJECT_NAME":"STARLINK-1636","COUNTRY_CODE":"US","ECCENTRICITY":"0.00016250","REF_FRAME":"TEME","NORAD_CAT_ID":"46153","APOAPSIS":"548.356","FILE":"3358862","BSTAR":"-0.00012253000000","MEAN_ANOMALY":"300.3617","CENTER_NAME":"EARTH","EPHEMERIS_TYPE":"0"},{"FILE":"3359259","BSTAR":"-0.00023814000000","CENTER_NAME":"EARTH","MEAN_ANOMALY":"297.2925","EPHEMERIS_TYPE":"0","COUNTRY_CODE":"US","ECCENTRICITY":"0.00017020","REF_FRAME":"TEME","NORAD_CAT_ID":"46154","APOAPSIS":"548.429","OBJECT_TYPE":"PAYLOAD","TLE_LINE2":"2 46154  53.0562   5.0195 0001702  62.8237 297.2925 15.06388114 86682","GP_ID":"198731416","OBJECT_NAME":"STARLINK-1642","ELEMENT_SET_NO":"999","PERIAPSIS":"546.071","MEAN_ELEMENT_THEORY":"SGP4","SEMIMAJOR_AXIS":"6925.385","ARG_OF_PERICENTER":"62.8237","DECAY_DATE":null,"TLE_LINE1":"1 46154U 20057AP  22073.20971190 -.00003826  00000-0 -23814-3 0  9999","INCLINATION":"53.0562","LAUNCH_DATE":"2020-08-18","CLASSIFICATION_TYPE":"U","RCS_SIZE":"LARGE","MEAN_MOTION_DOT":"-0.00003826","MEAN_MOTION":"15.06388114","PERIOD":"95.593","SITE":"AFETR","MEAN_MOTION_DDOT":"0.0000000000000","OBJECT_ID":"2020-057AP","TIME_SYSTEM":"UTC","RA_OF_ASC_NODE":"5.0195","EPOCH":"2022-03-14T05:01:59.108160","REV_AT_EPOCH":"8668"}];
